{
    "links": {
        "self": "http://www.neowsapp.com/rest/v1/neo/3909262?api_key=iIulBulltgU6a56xZRHN4H3l9WmuAYTsLGpBGhQ2"
    },
    "id": "3909262",
    "neo_reference_id": "3909262",
    "name": "(2019 XP2)",
    "designation": "2019 XP2",
    "nasa_jpl_url": "http://ssd.jpl.nasa.gov/sbdb.cgi?sstr=3909262",
    "absolute_magnitude_h": 23.3,
    "estimated_diameter": {
        "kilometers": {
            "estimated_diameter_min": 0.058150704,
            "estimated_diameter_max": 0.130028927
        },
        "meters": {
            "estimated_diameter_min": 58.1507039646,
            "estimated_diameter_max": 130.0289270043
        },
        "miles": {
            "estimated_diameter_min": 0.0361331611,
            "estimated_diameter_max": 0.0807962044
        },
        "feet": {
            "estimated_diameter_min": 190.7831555951,
            "estimated_diameter_max": 426.6041048727
        }
    },
    "is_potentially_hazardous_asteroid": false,
    "close_approach_data": [
        {
            "close_approach_date": "2019-12-12",
            "close_approach_date_full": "2019-Dec-12 00:32",
            "epoch_date_close_approach": 1576110720000,
            "relative_velocity": {
                "kilometers_per_second": "12.0285185209",
                "kilometers_per_hour": "43302.6666751637",
                "miles_per_hour": "26906.5930793538"
            },
            "miss_distance": {
                "astronomical": "0.1393951157",
                "lunar": "54.2247000073",
                "kilometers": "20853212.397123559",
                "miles": "12957585.3323567542"
            },
            "orbiting_body": "Earth"
        }
    ],
    "orbital_data": {
        "orbit_id": "4",
        "orbit_determination_date": "2020-01-02 06:16:19",
        "first_observation_date": "2019-12-06",
        "last_observation_date": "2020-01-01",
        "data_arc_in_days": 26,
        "observations_used": 33,
        "orbit_uncertainty": "8",
        "minimum_orbit_intersection": ".0780966",
        "jupiter_tisserand_invariant": "3.100",
        "epoch_osculation": "2458831.5",
        "eccentricity": ".6032640211201985",
        "semi_major_axis": "2.614152426040705",
        "inclination": "11.17809412408483",
        "ascending_node_longitude": "80.34877201974214",
        "orbital_period": "1543.81333216221",
        "perihelion_distance": "1.037128321686267",
        "perihelion_argument": "26.7495593913952",
        "aphelion_distance": "4.191176530395143",
        "perihelion_time": "2458847.858498379053",
        "mean_anomaly": "356.1853811637894",
        "mean_motion": ".2331888140231286",
        "equinox": "J2000",
        "orbit_class": {
            "orbit_class_type": "AMO",
            "orbit_class_description": "Near-Earth asteroid orbits similar to that of 1221 Amor",
            "orbit_class_range": "1.017 AU < q (perihelion) < 1.3 AU"
        }
    },
    "is_sentry_object": false
}